start=new Date('2022-01-02T00:00:00.000Z').valueOf();
sats=[{"TIME_SYSTEM":"UTC","PERIOD":"95.595","BSTAR":"-0.00027413000000","MEAN_MOTION":"15.06353908","INCLINATION":"53.0560","REF_FRAME":"TEME","RCS_SIZE":"LARGE","ELEMENT_SET_NO":"999","ARG_OF_PERICENTER":"60.4165","GP_ID":"192866508","CENTER_NAME":"EARTH","TLE_LINE2":"2 44927  53.0560   6.4463 0001854  60.4165 299.7009 15.06353908109534","MEAN_ANOMALY":"299.7009","NORAD_CAT_ID":"44927","OBJECT_ID":"2020-001P","MEAN_MOTION_DDOT":"0.0000000000000","EPOCH":"2022-01-01T14:33:40.167360","CLASSIFICATION_TYPE":"U","MEAN_ELEMENT_THEORY":"SGP4","SITE":"AFETR","OBJECT_NAME":"STARLINK-1114","ECCENTRICITY":"0.00018540","LAUNCH_DATE":"2020-01-07","FILE":"3255244","SEMIMAJOR_AXIS":"6925.490","DECAY_DATE":null,"OBJECT_TYPE":"PAYLOAD","COUNTRY_CODE":"US","APOAPSIS":"548.639","REV_AT_EPOCH":"10953","PERIAPSIS":"546.071","MEAN_MOTION_DOT":"-0.00004357","RA_OF_ASC_NODE":"6.4463","EPHEMERIS_TYPE":"0","TLE_LINE1":"1 44927U 20001P   22001.60671490 -.00004357  00000-0 -27413-3 0  9998"},{"NORAD_CAT_ID":"44928","MEAN_ANOMALY":"293.7882","TLE_LINE2":"2 44928  53.0545   9.1597 0001479  66.3262 293.7882 15.06398164109448","CENTER_NAME":"EARTH","GP_ID":"192866758","ARG_OF_PERICENTER":"66.3262","CLASSIFICATION_TYPE":"U","EPOCH":"2022-01-01T00:08:25.931616","MEAN_MOTION_DDOT":"0.0000000000000","OBJECT_ID":"2020-001Q","MEAN_MOTION":"15.06398164","BSTAR":"0.00007423300000","PERIOD":"95.592","TIME_SYSTEM":"UTC","ELEMENT_SET_NO":"999","RCS_SIZE":"LARGE","REF_FRAME":"TEME","INCLINATION":"53.0545","COUNTRY_CODE":"US","APOAPSIS":"548.243","OBJECT_TYPE":"PAYLOAD","DECAY_DATE":null,"SEMIMAJOR_AXIS":"6925.354","FILE":"3255244","TLE_LINE1":"1 44928U 20001Q   22001.00585569  .00000824  00000-0  74233-4 0  9990","EPHEMERIS_TYPE":"0","RA_OF_ASC_NODE":"9.1597","MEAN_MOTION_DOT":"0.00000824","REV_AT_EPOCH":"10944","PERIAPSIS":"546.195","OBJECT_NAME":"STARLINK-1119","SITE":"AFETR","MEAN_ELEMENT_THEORY":"SGP4","LAUNCH_DATE":"2020-01-07","ECCENTRICITY":"0.00014790"},{"LAUNCH_DATE":"2020-01-07","ECCENTRICITY":"0.00014730","OBJECT_NAME":"STARLINK-1121","MEAN_ELEMENT_THEORY":"SGP4","SITE":"AFETR","EPHEMERIS_TYPE":"0","TLE_LINE1":"1 44929U 20001R   22001.52189953  .00001209  00000-0  10005-3 0  9999","MEAN_MOTION_DOT":"0.00001209","PERIAPSIS":"546.237","REV_AT_EPOCH":"10951","RA_OF_ASC_NODE":"6.8242","DECAY_DATE":null,"APOAPSIS":"548.277","COUNTRY_CODE":"US","OBJECT_TYPE":"PAYLOAD","FILE":"3255244","SEMIMAJOR_AXIS":"6925.392","RCS_SIZE":"LARGE","ELEMENT_SET_NO":"999","INCLINATION":"53.0551","REF_FRAME":"TEME","MEAN_MOTION":"15.06385840","PERIOD":"95.593","BSTAR":"0.00010005000000","TIME_SYSTEM":"UTC","CLASSIFICATION_TYPE":"U","OBJECT_ID":"2020-001R","EPOCH":"2022-01-01T12:31:32.119392","MEAN_MOTION_DDOT":"0.0000000000000","MEAN_ANOMALY":"289.5971","TLE_LINE2":"2 44929  53.0551   6.8242 0001473  70.5177 289.5971 15.06385840109510","NORAD_CAT_ID":"44929","ARG_OF_PERICENTER":"70.5177","CENTER_NAME":"EARTH","GP_ID":"192867009"},{"ECCENTRICITY":"0.00013730","LAUNCH_DATE":"2020-01-07","SITE":"AFETR","MEAN_ELEMENT_THEORY":"SGP4","OBJECT_NAME":"STARLINK-1123","RA_OF_ASC_NODE":"7.2806","MEAN_MOTION_DOT":"0.00000457","PERIAPSIS":"546.272","REV_AT_EPOCH":"10950","TLE_LINE1":"1 44930U 20001S   22001.42237039  .00000457  00000-0  49568-4 0  9990","EPHEMERIS_TYPE":"0","SEMIMAJOR_AXIS":"6925.358","FILE":"3255244","APOAPSIS":"548.173","COUNTRY_CODE":"US","OBJECT_TYPE":"PAYLOAD","DECAY_DATE":null,"REF_FRAME":"TEME","INCLINATION":"53.0549","ELEMENT_SET_NO":"999","RCS_SIZE":"LARGE","PERIOD":"95.592","BSTAR":"0.00004956800000","TIME_SYSTEM":"UTC","MEAN_MOTION":"15.06397064","EPOCH":"2022-01-01T10:08:12.801696","MEAN_MOTION_DDOT":"0.0000000000000","OBJECT_ID":"2020-001S","CLASSIFICATION_TYPE":"U","CENTER_NAME":"EARTH","GP_ID":"192867751","ARG_OF_PERICENTER":"74.9939","NORAD_CAT_ID":"44930","MEAN_ANOMALY":"285.1202","TLE_LINE2":"2 44930  53.0549   7.2806 0001373  74.9939 285.1202 15.06397064109502"},{"CENTER_NAME":"EARTH","GP_ID":"192866008","ARG_OF_PERICENTER":"65.5739","NORAD_CAT_ID":"44931","MEAN_ANOMALY":"294.5462","TLE_LINE2":"2 44931  53.0533   7.8385 0002018  65.5739 294.5462 15.09612770110214","EPOCH":"2022-01-01T03:07:48.620640","MEAN_MOTION_DDOT":"0.0000000000000","OBJECT_ID":"2020-001T","CLASSIFICATION_TYPE":"U","BSTAR":"0.00033135000000","PERIOD":"95.389","TIME_SYSTEM":"UTC","MEAN_MOTION":"15.09612770","REF_FRAME":"TEME","INCLINATION":"53.0533","ELEMENT_SET_NO":"999","RCS_SIZE":"LARGE","SEMIMAJOR_AXIS":"6915.519","FILE":"3255244","COUNTRY_CODE":"US","APOAPSIS":"538.780","OBJECT_TYPE":"PAYLOAD","DECAY_DATE":null,"RA_OF_ASC_NODE":"7.8385","MEAN_MOTION_DOT":"0.00005100","REV_AT_EPOCH":"11021","PERIAPSIS":"535.989","TLE_LINE1":"1 44931U 20001T   22001.13042385  .00005100  00000-0  33135-3 0  9999","EPHEMERIS_TYPE":"0","SITE":"AFETR","MEAN_ELEMENT_THEORY":"SGP4","OBJECT_NAME":"STARLINK-1128","ECCENTRICITY":"0.00020180","LAUNCH_DATE":"2020-01-07"},{"ECCENTRICITY":"0.00012830","LAUNCH_DATE":"2020-01-07","MEAN_ELEMENT_THEORY":"SGP4","SITE":"AFETR","OBJECT_NAME":"STARLINK-1130","REV_AT_EPOCH":"11073","PERIAPSIS":"546.333","MEAN_MOTION_DOT":"0.00000561","RA_OF_ASC_NODE":"7.3343","EPHEMERIS_TYPE":"0","TLE_LINE1":"1 44932U 20001U   22001.41131549  .00000561  00000-0  56536-4 0  9999","FILE":"3255244","SEMIMAJOR_AXIS":"6925.356","DECAY_DATE":null,"OBJECT_TYPE":"PAYLOAD","COUNTRY_CODE":"US","APOAPSIS":"548.110","INCLINATION":"53.0550","REF_FRAME":"TEME","RCS_SIZE":"LARGE","ELEMENT_SET_NO":"999","TIME_SYSTEM":"UTC","BSTAR":"0.00005653600000","PERIOD":"95.592","MEAN_MOTION":"15.06397455","OBJECT_ID":"2020-001U","MEAN_MOTION_DDOT":"0.0000000000000","EPOCH":"2022-01-01T09:52:17.658336","CLASSIFICATION_TYPE":"U","ARG_OF_PERICENTER":"73.4053","GP_ID":"192866258","CENTER_NAME":"EARTH","TLE_LINE2":"2 44932  53.0550   7.3343 0001283  73.4053 286.7076 15.06397455110731","MEAN_ANOMALY":"286.7076","NORAD_CAT_ID":"44932"},{"DECAY_DATE":null,"COUNTRY_CODE":"US","APOAPSIS":"548.221","OBJECT_TYPE":"PAYLOAD","FILE":"3255244","SEMIMAJOR_AXIS":"6925.386","EPHEMERIS_TYPE":"0","TLE_LINE1":"1 44933U 20001V   22001.10538560 -.00000123  00000-0  10635-4 0  9995","MEAN_MOTION_DOT":"-0.00000123","REV_AT_EPOCH":"11074","PERIAPSIS":"546.281","RA_OF_ASC_NODE":"8.7049","OBJECT_NAME":"STARLINK-1144","MEAN_ELEMENT_THEORY":"SGP4","SITE":"AFETR","LAUNCH_DATE":"2020-01-07","ECCENTRICITY":"0.00014000","MEAN_ANOMALY":"283.8583","TLE_LINE2":"2 44933  53.0558   8.7049 0001400  76.2561 283.8583 15.06387782110748","NORAD_CAT_ID":"44933","ARG_OF_PERICENTER":"76.2561","CENTER_NAME":"EARTH","GP_ID":"192867510","CLASSIFICATION_TYPE":"U","OBJECT_ID":"2020-001V","EPOCH":"2022-01-01T02:31:45.315840","MEAN_MOTION_DDOT":"0.0000000000000","MEAN_MOTION":"15.06387782","PERIOD":"95.593","BSTAR":"0.00001063500000","TIME_SYSTEM":"UTC","RCS_SIZE":"LARGE","ELEMENT_SET_NO":"999","INCLINATION":"53.0558","REF_FRAME":"TEME"},{"LAUNCH_DATE":"2020-01-07","ECCENTRICITY":"0.00014650","OBJECT_NAME":"STARLINK-1071","SITE":"AFETR","MEAN_ELEMENT_THEORY":"SGP4","TLE_LINE1":"1 44934U 20001W   22001.38367122  .00000204  00000-0  32604-4 0  9999","EPHEMERIS_TYPE":"0","RA_OF_ASC_NODE":"347.4537","MEAN_MOTION_DOT":"0.00000204","REV_AT_EPOCH":"10977","PERIAPSIS":"546.227","COUNTRY_CODE":"US","APOAPSIS":"548.256","OBJECT_TYPE":"PAYLOAD","DECAY_DATE":null,"SEMIMAJOR_AXIS":"6925.376","FILE":"3255244","ELEMENT_SET_NO":"999","RCS_SIZE":"LARGE","REF_FRAME":"TEME","INCLINATION":"53.0546","MEAN_MOTION":"15.06390913","PERIOD":"95.593","BSTAR":"0.00003260400000","TIME_SYSTEM":"UTC","CLASSIFICATION_TYPE":"U","EPOCH":"2022-01-01T09:12:29.193408","MEAN_MOTION_DDOT":"0.0000000000000","OBJECT_ID":"2020-001W","NORAD_CAT_ID":"44934","MEAN_ANOMALY":"284.0585","TLE_LINE2":"2 44934  53.0546 347.4537 0001465  76.0567 284.0585 15.06390913109772","CENTER_NAME":"EARTH","GP_ID":"192867251","ARG_OF_PERICENTER":"76.0567"},{"MEAN_MOTION":"15.06388108","PERIOD":"95.593","BSTAR":"0.00004981400000","TIME_SYSTEM":"UTC","RCS_SIZE":"LARGE","ELEMENT_SET_NO":"999","INCLINATION":"53.0553","REF_FRAME":"TEME","MEAN_ANOMALY":"295.0670","TLE_LINE2":"2 44937  53.0553 347.5567 0001606  65.0486 295.0670 15.06388108109772","NORAD_CAT_ID":"44937","ARG_OF_PERICENTER":"65.0486","CENTER_NAME":"EARTH","GP_ID":"192866509","CLASSIFICATION_TYPE":"U","OBJECT_ID":"2020-001Z","EPOCH":"2022-01-01T08:40:38.266464","MEAN_MOTION_DDOT":"0.0000000000000","OBJECT_NAME":"STARLINK-1079","MEAN_ELEMENT_THEORY":"SGP4","SITE":"AFETR","LAUNCH_DATE":"2020-01-07","ECCENTRICITY":"0.00016060","DECAY_DATE":null,"COUNTRY_CODE":"US","APOAPSIS":"548.362","OBJECT_TYPE":"PAYLOAD","FILE":"3255244","SEMIMAJOR_AXIS":"6925.385","EPHEMERIS_TYPE":"0","TLE_LINE1":"1 44937U 20001Z   22001.36155401  .00000460  00000-0  49814-4 0  9990","MEAN_MOTION_DOT":"0.00000460","REV_AT_EPOCH":"10977","PERIAPSIS":"546.138","RA_OF_ASC_NODE":"347.5567"},{"ECCENTRICITY":"0.00015790","LAUNCH_DATE":"2020-01-07","MEAN_ELEMENT_THEORY":"SGP4","SITE":"AFETR","OBJECT_NAME":"STARLINK-1082","MEAN_MOTION_DOT":"0.00000240","REV_AT_EPOCH":"10972","PERIAPSIS":"546.140","RA_OF_ASC_NODE":"348.8918","EPHEMERIS_TYPE":"0","TLE_LINE1":"1 44938U 20001AA  22001.06299514  .00000240  00000-0  35041-4 0  9995","FILE":"3255244","SEMIMAJOR_AXIS":"6925.368","DECAY_DATE":null,"APOAPSIS":"548.327","COUNTRY_CODE":"US","OBJECT_TYPE":"PAYLOAD","INCLINATION":"53.0558","REF_FRAME":"TEME","RCS_SIZE":"LARGE","ELEMENT_SET_NO":"999","PERIOD":"95.593","BSTAR":"0.00003504100000","TIME_SYSTEM":"UTC","MEAN_MOTION":"15.06393504","OBJECT_ID":"2020-001AA","EPOCH":"2022-01-01T01:30:42.780096","MEAN_MOTION_DDOT":"0.0000000000000","CLASSIFICATION_TYPE":"U","ARG_OF_PERICENTER":"65.0896","CENTER_NAME":"EARTH","GP_ID":"192866759","MEAN_ANOMALY":"295.0257","TLE_LINE2":"2 44938  53.0558 348.8918 0001579  65.0896 295.0257 15.06393504109728","NORAD_CAT_ID":"44938"}];
